[{"OBJECT_NAME":"XCUBE-1","OBJECT_ID":"2024-247Z","EPOCH":"2026-03-09T11:35:28.885344","MEAN_MOTION":15.27910558,"ECCENTRICITY":0.00052355,"INCLINATION":44.9938,"RA_OF_ASC_NODE":117.7807,"ARG_OF_PERICENTER":331.1499,"MEAN_ANOMALY":28.9094,"EPHEMERIS_TYPE":0,"CLASSIFICATION_TYPE":"U","NORAD_CAT_ID":62400,"ELEMENT_SET_NO":999,"REV_AT_EPOCH":6770,"BSTAR":0.00036224252,"MEAN_MOTION_DOT":9.773e-5,"MEAN_MOTION_DDOT":0},{"OBJECT_NAME":"STARLINK-35398","OBJECT_ID":"2025-232N","EPOCH":"2026-03-09T11:44:21.782400","MEAN_MOTION":15.30188307,"ECCENTRICITY":0.00015605,"INCLINATION":53.1598,"RA_OF_ASC_NODE":104.9292,"ARG_OF_PERICENTER":69.6563,"MEAN_ANOMALY":290.4605,"EPHEMERIS_TYPE":0,"CLASSIFICATION_TYPE":"U","NORAD_CAT_ID":66017,"ELEMENT_SET_NO":999,"REV_AT_EPOCH":2340,"BSTAR":0.00098897436,"MEAN_MOTION_DOT":0.00029035,"MEAN_MOTION_DDOT":0}]
