XCUBE-1                 
1 62400U 24247Z   26068.48297321  .00009773  00000+0  36224-3 0  9994
2 62400  44.9938 117.7807 0005235 331.1499  28.9094 15.27910558 67702
STARLINK-35398          
1 66017U 25232N   26068.48914100  .00029035  00000+0  98897-3 0  9995
2 66017  53.1598 104.9292 0001560  69.6563 290.4605 15.30188307 23408
